{
  "norad_id": 54135,
  "name": "ONEWEB-0517",
  "history": [
    {
      "epoch": "2026-03-28T21:54:01.537056",
      "apogee_km": 1186.8832528662124,
      "perigee_km": 1184.6558336673506,
      "latitude_deg": 12.296209904276777,
      "longitude_deg": 41.10170783987269,
      "semi_major_axis_km": 7563.906543266781,
      "eccentricity": 0.00014724,
      "inclination_deg": 87.9201,
      "raan_deg": 320.9679,
      "arg_perigee_deg": 89.3769,
      "mean_anomaly_deg": 270.7533,
      "mean_motion_rev_day": 13.19725264
    },
    {
      "epoch": "2026-03-29T03:21:33.197184",
      "apogee_km": 1186.8886640646087,
      "perigee_km": 1184.643697600537,
      "latitude_deg": 29.340494961719497,
      "longitude_deg": 62.93688576016575,
      "semi_major_axis_km": 7563.903180832573,
      "eccentricity": 0.0001484,
      "inclination_deg": 87.9199,
      "raan_deg": 320.9226,
      "arg_perigee_deg": 89.6951,
      "mean_anomaly_deg": 270.4351,
      "mean_motion_rev_day": 13.19726144
    }
  ]
}